{
    "links": {
        "self": "http://www.neowsapp.com/rest/v1/neo/3782053?api_key=iIulBulltgU6a56xZRHN4H3l9WmuAYTsLGpBGhQ2"
    },
    "id": "3782053",
    "neo_reference_id": "3782053",
    "name": "(2017 TD1)",
    "designation": "2017 TD1",
    "nasa_jpl_url": "http://ssd.jpl.nasa.gov/sbdb.cgi?sstr=3782053",
    "absolute_magnitude_h": 23.9,
    "estimated_diameter": {
        "kilometers": {
            "estimated_diameter_min": 0.04411182,
            "estimated_diameter_max": 0.0986370281
        },
        "meters": {
            "estimated_diameter_min": 44.1118199997,
            "estimated_diameter_max": 98.6370281305
        },
        "miles": {
            "estimated_diameter_min": 0.0274098057,
            "estimated_diameter_max": 0.0612901888
        },
        "feet": {
            "estimated_diameter_min": 144.7238235278,
            "estimated_diameter_max": 323.6123073718
        }
    },
    "is_potentially_hazardous_asteroid": false,
    "close_approach_data": [
        {
            "close_approach_date": "2017-09-08",
            "close_approach_date_full": "2017-Sep-08 17:48",
            "epoch_date_close_approach": 1504892880000,
            "relative_velocity": {
                "kilometers_per_second": "10.8640581151",
                "kilometers_per_hour": "39110.6092143128",
                "miles_per_hour": "24301.8115976379"
            },
            "miss_distance": {
                "astronomical": "0.0602271995",
                "lunar": "23.4283806055",
                "kilometers": "9009860.761265065",
                "miles": "5598467.872645297"
            },
            "orbiting_body": "Earth"
        },
        {
            "close_approach_date": "2020-04-04",
            "close_approach_date_full": "2020-Apr-04 18:56",
            "epoch_date_close_approach": 1586026560000,
            "relative_velocity": {
                "kilometers_per_second": "13.203953353",
                "kilometers_per_hour": "47534.2320706531",
                "miles_per_hour": "29535.9232552344"
            },
            "miss_distance": {
                "astronomical": "0.1236691836",
                "lunar": "48.1073124204",
                "kilometers": "18500646.451198932",
                "miles": "11495768.6388999816"
            },
            "orbiting_body": "Earth"
        },
        {
            "close_approach_date": "2082-04-08",
            "close_approach_date_full": "2082-Apr-08 07:37",
            "epoch_date_close_approach": 3542859420000,
            "relative_velocity": {
                "kilometers_per_second": "8.2938692904",
                "kilometers_per_hour": "29857.929445419",
                "miles_per_hour": "18552.5562156827"
            },
            "miss_distance": {
                "astronomical": "0.2175592434",
                "lunar": "84.6305456826",
                "kilometers": "32546399.411451558",
                "miles": "20223394.8229971804"
            },
            "orbiting_body": "Earth"
        },
        {
            "close_approach_date": "2095-04-09",
            "close_approach_date_full": "2095-Apr-09 15:06",
            "epoch_date_close_approach": 3953199960000,
            "relative_velocity": {
                "kilometers_per_second": "9.793714305",
                "kilometers_per_hour": "35257.3714980907",
                "miles_per_hour": "21907.5595289108"
            },
            "miss_distance": {
                "astronomical": "0.1507045873",
                "lunar": "58.6240844597",
                "kilometers": "22545085.259309051",
                "miles": "14008866.3803688638"
            },
            "orbiting_body": "Earth"
        },
        {
            "close_approach_date": "2189-04-07",
            "close_approach_date_full": "2189-Apr-07 00:45",
            "epoch_date_close_approach": 6919346700000,
            "relative_velocity": {
                "kilometers_per_second": "13.2302984881",
                "kilometers_per_hour": "47629.074557124",
                "miles_per_hour": "29594.8546880085"
            },
            "miss_distance": {
                "astronomical": "0.1288397276",
                "lunar": "50.1186540364",
                "kilometers": "19274148.820340212",
                "miles": "11976400.7238784456"
            },
            "orbiting_body": "Earth"
        }
    ],
    "orbital_data": {
        "orbit_id": "1",
        "orbit_determination_date": "2017-10-07 15:42:11",
        "first_observation_date": "2017-10-01",
        "last_observation_date": "2017-10-04",
        "data_arc_in_days": 3,
        "observations_used": 28,
        "orbit_uncertainty": "8",
        "minimum_orbit_intersection": ".0136498",
        "jupiter_tisserand_invariant": "4.974",
        "epoch_osculation": "2458029.5",
        "eccentricity": ".3506804280477125",
        "semi_major_axis": "1.278063516102559",
        "inclination": "13.37617626975069",
        "ascending_node_longitude": "352.5153287285714",
        "orbital_period": "527.7485918640166",
        "perihelion_distance": ".8298716552035489",
        "perihelion_argument": "284.724771350562",
        "aphelion_distance": "1.726255377001568",
        "perihelion_time": "2457950.500975512759",
        "mean_anomaly": "53.8886304081977",
        "mean_motion": ".6821429854099168",
        "equinox": "J2000",
        "orbit_class": {
            "orbit_class_type": "APO",
            "orbit_class_description": "Near-Earth asteroid orbits which cross the Earth’s orbit similar to that of 1862 Apollo",
            "orbit_class_range": "a (semi-major axis) > 1.0 AU; q (perihelion) < 1.017 AU"
        }
    },
    "is_sentry_object": false
}